     3.04           N: GNSS NAV DATA    M: MIXED            RINEX VERSION / TYPE
ssrcrin-15.6.1x                         20250101 051500 UTC PGM / RUN BY / DATE 
    18                                                      LEAP SECONDS        
                                                            END OF HEADER       
S23 2025 01 01 05 26 08 0.000000000000E+00 0.000000000000E+00 2.787750000000E+05
     3.866796400000E+04 0.000000000000E+00 0.000000000000E+00 6.300000000000E+01
     1.681330800000E+04 0.000000000000E+00 0.000000000000E+00 3.276700000000E+04
     0.000000000000E+00 0.000000000000E+00 0.000000000000E+00 1.420000000000E+02
S36 2025 01 01 05 27 12 0.000000000000E+00 0.000000000000E+00 2.788380000000E+05
     4.200368800000E+04 0.000000000000E+00 0.000000000000E+00 6.300000000000E+01
     3.674846960000E+03 0.000000000000E+00 0.000000000000E+00 3.276700000000E+04
     0.000000000000E+00 0.000000000000E+00 0.000000000000E+00 2.500000000000E+01
E13 2025 01 01 04 50 00-2.859468804672E-05-3.552713678801E-13 0.000000000000E+00
     8.000000000000E+01 1.527812500000E+02 2.705469836535E-09 2.119847348562E+00
     7.079914212227E-06 3.839132841676E-04-1.545995473862E-07 5.440611154556E+03
     2.766000000000E+05 5.960464477539E-08-1.775706219097E+00 4.097819328308E-08
     9.996688881303E-01 3.610937500000E+02-1.109117012067E+00-5.695594387225E-09
     3.025126008641E-10 2.580000000000E+02 2.347000000000E+03
     3.120000000000E+00 0.000000000000E+00 2.095475792885E-09 0.000000000000E+00
     2.788400000000E+05
S23 2025 01 01 05 28 16 0.000000000000E+00 0.000000000000E+00 2.789020000000E+05
     3.866796400000E+04 0.000000000000E+00 0.000000000000E+00 6.300000000000E+01
     1.681330800000E+04 0.000000000000E+00 0.000000000000E+00 3.276700000000E+04
     0.000000000000E+00 0.000000000000E+00 0.000000000000E+00 1.430000000000E+02
G13 2025 01 01 06 00 00 6.919954903424E-04 1.250555214938E-12 0.000000000000E+00
     1.270000000000E+02-7.600000000000E+01 3.985880313628E-09-5.171602868532E-01
    -3.993511199951E-06 8.808916434646E-03 1.064687967300E-05 5.153693826675E+03
     2.808000000000E+05-1.490116119385E-08 3.755336881083E-01 1.210719347000E-07
     9.731666261705E-01 1.798750000000E+02 9.701566722224E-01-7.761394721815E-09
     2.125088518467E-10 1.000000000000E+00 2.347000000000E+03 0.000000000000E+00
     2.000000000000E+00 0.000000000000E+00-1.117587089539E-08 1.270000000000E+02
     2.789760000000E+05 4.000000000000E+00
S36 2025 01 01 05 29 52 0.000000000000E+00 0.000000000000E+00 2.789940000000E+05
     4.200368800000E+04 0.000000000000E+00 0.000000000000E+00 6.300000000000E+01
     3.674846960000E+03 0.000000000000E+00 0.000000000000E+00 3.276700000000E+04
     0.000000000000E+00 0.000000000000E+00 0.000000000000E+00 2.600000000000E+01
R01 2025 01 01 05 15 00 1.097042113543E-04 9.094947017729E-13 2.789700000000E+05
     4.458642578125E+03-1.388463973999E-01 2.793967723846E-09 0.000000000000E+00
    -2.302331689453E+04 1.375205039978E+00-4.656612873077E-09 1.000000000000E+00
     1.002922412109E+04 3.219804763794E+00 1.862645149231E-09 0.000000000000E+00
